[{"OBJECT_NAME":"STARLINK-34713","OBJECT_ID":"2025-157C","EPOCH":"2026-03-09T22:45:09.998496","MEAN_MOTION":15.30221449,"ECCENTRICITY":0.00011203,"INCLINATION":53.159,"RA_OF_ASC_NODE":344.4511,"ARG_OF_PERICENTER":70.0579,"MEAN_ANOMALY":290.0543,"EPHEMERIS_TYPE":0,"CLASSIFICATION_TYPE":"U","NORAD_CAT_ID":64906,"ELEMENT_SET_NO":999,"REV_AT_EPOCH":3611,"BSTAR":0.0010070304,"MEAN_MOTION_DOT":0.00029605,"MEAN_MOTION_DDOT":0},{"OBJECT_NAME":"CZ-6A DEB","OBJECT_ID":"2022-151NB","EPOCH":"2026-03-09T18:26:17.609568","MEAN_MOTION":15.22372787,"ECCENTRICITY":0.00267955,"INCLINATION":98.6489,"RA_OF_ASC_NODE":154.0342,"ARG_OF_PERICENTER":180.4296,"MEAN_ANOMALY":179.6918,"EPHEMERIS_TYPE":0,"CLASSIFICATION_TYPE":"U","NORAD_CAT_ID":54601,"ELEMENT_SET_NO":999,"REV_AT_EPOCH":17694,"BSTAR":0.011449911,"MEAN_MOTION_DOT":0.00276508,"MEAN_MOTION_DDOT":0}]
